[{"OBJECT_NAME":"IRIDIUM 142","OBJECT_ID":"2018-030H","EPOCH":"2026-03-09T19:54:27.398592","MEAN_MOTION":14.34217645,"ECCENTRICITY":0.000204,"INCLINATION":86.4006,"RA_OF_ASC_NODE":331.9079,"ARG_OF_PERICENTER":94.7375,"MEAN_ANOMALY":265.4053,"EPHEMERIS_TYPE":0,"CLASSIFICATION_TYPE":"U","NORAD_CAT_ID":43256,"ELEMENT_SET_NO":999,"REV_AT_EPOCH":41589,"BSTAR":-2.157633e-6,"MEAN_MOTION_DOT":1.4e-7,"MEAN_MOTION_DDOT":0},{"OBJECT_NAME":"FENGYUN 1C DEB","OBJECT_ID":"1999-025BSR","EPOCH":"2026-03-07T05:31:10.569216","MEAN_MOTION":14.44137306,"ECCENTRICITY":0.0134021,"INCLINATION":98.9462,"RA_OF_ASC_NODE":165.7802,"ARG_OF_PERICENTER":163.5415,"MEAN_ANOMALY":227.4595,"EPHEMERIS_TYPE":0,"CLASSIFICATION_TYPE":"U","NORAD_CAT_ID":31385,"ELEMENT_SET_NO":999,"REV_AT_EPOCH":99834,"BSTAR":0.00034438,"MEAN_MOTION_DOT":1.263e-5,"MEAN_MOTION_DDOT":0}]
